STARLINK-35382          
1 66019U 25232Q   25317.16671295 -.02080919  00000+0 -48209-1 0  9995
2 66019  53.1591 286.5318 0001093  83.2038 355.8403 15.45436529  4790
STARLINK-35430          
1 66020U 25232R   25317.18288427  .00077657  00000+0  19342-2 0  9998
2 66020  53.1599 286.7896 0001200  91.1945 268.9197 15.39580095  5558
STARLINK-35432          
1 66021U 25232S   25317.18754773  .00068485  00000+0  17067-2 0  9992
2 66021  53.1606 286.8208 0002065  92.8427 267.2814 15.39619895  5570
STARLINK-35340          
1 66022U 25232T   25317.17825738  .00111686  00000+0  27613-2 0  9992
2 66022  53.1590 286.7590 0001749 116.7150 243.4034 15.39620959  5576
STARLINK-35394          
1 66023U 25232U   25317.16671295  .00048111  00000+0  12077-2 0  9999
2 66023  53.1598 286.7634 0001305  87.5813 234.3065 15.39557296  4781
STARLINK-35410          
1 66024U 25232V   25317.16671295  .00040846  00000+0  10276-2 0  9996
2 66024  53.1587 286.6606 0001495  93.0517 280.3241 15.39563095  4782
STARLINK-35280          
1 66025U 25232W   25317.16671295  .00059880  00000+0  14988-2 0  9999
2 66025  53.1593 286.7118 0001068  96.2925 251.3452 15.39548119  4729
STARLINK-34812          
1 66026U 25232X   25317.16671295  .00060120  00000+0  15042-2 0  9991
2 66026  53.1584 286.6102 0001555  68.0345 331.0789 15.39557824  4739
STARLINK-35341          
1 66027U 25232Y   25317.14575218  .00081472  00000+0  20262-2 0  9991
2 66027  53.1594 286.5505 0002012 124.4226 235.6969 15.39602128  5571
STARLINK-35339          
1 66028U 25232Z   25317.16671295  .00045590  00000+0  11455-2 0  9991
2 66028  53.1586 286.4010 0001220  89.1342  53.0387 15.39550636  4727
STARLINK-35399          
1 66029U 25232AA  25317.16671295  .00041726  00000+0  10496-2 0  9993
2 66029  53.1587 286.3496 0001228  83.8361  84.0867 15.39556304  4721
STARLINK-35431          
1 66030U 25232AB  25317.16671295  .00052859  00000+0  13264-2 0  9990
2 66030  53.1594 286.2971 0001234  70.2125 123.5175 15.39525608  4727
