CCSDS_OMM_VERS = 2.0
CREATION_DATE  = 
ORIGINATOR     = 

OBJECT_NAME    = STARLINK-35382
OBJECT_ID      = 2025-232Q
CENTER_NAME    = EARTH
REF_FRAME      = TEME
TIME_SYSTEM    = UTC
MEAN_ELEMENT_THEORY = SGP/SGP4

EPOCH          = 2025-11-13T04:00:03.998880
MEAN_MOTION    = 15.45436529
ECCENTRICITY   = .0001093
INCLINATION    = 53.1591
RA_OF_ASC_NODE = 286.5318
ARG_OF_PERICENTER = 83.2038
MEAN_ANOMALY   = 355.8403

EPHEMERIS_TYPE = 0
CLASSIFICATION_TYPE = U
NORAD_CAT_ID   = 66019
ELEMENT_SET_NO = 999
REV_AT_EPOCH   = 479
BSTAR          = -.48209E-1
MEAN_MOTION_DOT = -.2080919E-1
MEAN_MOTION_DDOT = 0

CCSDS_OMM_VERS = 2.0
CREATION_DATE  = 
ORIGINATOR     = 

OBJECT_NAME    = STARLINK-35430
OBJECT_ID      = 2025-232R
CENTER_NAME    = EARTH
REF_FRAME      = TEME
TIME_SYSTEM    = UTC
MEAN_ELEMENT_THEORY = SGP/SGP4

EPOCH          = 2025-11-13T04:23:21.200928
MEAN_MOTION    = 15.39580095
ECCENTRICITY   = .00012
INCLINATION    = 53.1599
RA_OF_ASC_NODE = 286.7896
ARG_OF_PERICENTER = 91.1945
MEAN_ANOMALY   = 268.9197

EPHEMERIS_TYPE = 0
CLASSIFICATION_TYPE = U
NORAD_CAT_ID   = 66020
ELEMENT_SET_NO = 999
REV_AT_EPOCH   = 555
BSTAR          = .19342E-2
MEAN_MOTION_DOT = .77657E-3
MEAN_MOTION_DDOT = 0

CCSDS_OMM_VERS = 2.0
CREATION_DATE  = 
ORIGINATOR     = 

OBJECT_NAME    = STARLINK-35432
OBJECT_ID      = 2025-232S
CENTER_NAME    = EARTH
REF_FRAME      = TEME
TIME_SYSTEM    = UTC
MEAN_ELEMENT_THEORY = SGP/SGP4

EPOCH          = 2025-11-13T04:30:04.123872
MEAN_MOTION    = 15.39619895
ECCENTRICITY   = .0002065
INCLINATION    = 53.1606
RA_OF_ASC_NODE = 286.8208
ARG_OF_PERICENTER = 92.8427
MEAN_ANOMALY   = 267.2814

EPHEMERIS_TYPE = 0
CLASSIFICATION_TYPE = U
NORAD_CAT_ID   = 66021
ELEMENT_SET_NO = 999
REV_AT_EPOCH   = 557
BSTAR          = .17067E-2
MEAN_MOTION_DOT = .68485E-3
MEAN_MOTION_DDOT = 0

CCSDS_OMM_VERS = 2.0
CREATION_DATE  = 
ORIGINATOR     = 

OBJECT_NAME    = STARLINK-35340
OBJECT_ID      = 2025-232T
CENTER_NAME    = EARTH
REF_FRAME      = TEME
TIME_SYSTEM    = UTC
MEAN_ELEMENT_THEORY = SGP/SGP4

EPOCH          = 2025-11-13T04:16:41.437632
MEAN_MOTION    = 15.39620959
ECCENTRICITY   = .0001749
INCLINATION    = 53.1590
RA_OF_ASC_NODE = 286.7590
ARG_OF_PERICENTER = 116.7150
MEAN_ANOMALY   = 243.4034

EPHEMERIS_TYPE = 0
CLASSIFICATION_TYPE = U
NORAD_CAT_ID   = 66022
ELEMENT_SET_NO = 999
REV_AT_EPOCH   = 557
BSTAR          = .27613E-2
MEAN_MOTION_DOT = .111686E-2
MEAN_MOTION_DDOT = 0

CCSDS_OMM_VERS = 2.0
CREATION_DATE  = 
ORIGINATOR     = 

OBJECT_NAME    = STARLINK-35394
OBJECT_ID      = 2025-232U
CENTER_NAME    = EARTH
REF_FRAME      = TEME
TIME_SYSTEM    = UTC
MEAN_ELEMENT_THEORY = SGP/SGP4

EPOCH          = 2025-11-13T04:00:03.998880
MEAN_MOTION    = 15.39557296
ECCENTRICITY   = .0001305
INCLINATION    = 53.1598
RA_OF_ASC_NODE = 286.7634
ARG_OF_PERICENTER = 87.5813
MEAN_ANOMALY   = 234.3065

EPHEMERIS_TYPE = 0
CLASSIFICATION_TYPE = U
NORAD_CAT_ID   = 66023
ELEMENT_SET_NO = 999
REV_AT_EPOCH   = 478
BSTAR          = .12077E-2
MEAN_MOTION_DOT = .48111E-3
MEAN_MOTION_DDOT = 0

CCSDS_OMM_VERS = 2.0
CREATION_DATE  = 
ORIGINATOR     = 

OBJECT_NAME    = STARLINK-35410
OBJECT_ID      = 2025-232V
CENTER_NAME    = EARTH
REF_FRAME      = TEME
TIME_SYSTEM    = UTC
MEAN_ELEMENT_THEORY = SGP/SGP4

EPOCH          = 2025-11-13T04:00:03.998880
MEAN_MOTION    = 15.39563095
ECCENTRICITY   = .0001495
INCLINATION    = 53.1587
RA_OF_ASC_NODE = 286.6606
ARG_OF_PERICENTER = 93.0517
MEAN_ANOMALY   = 280.3241

EPHEMERIS_TYPE = 0
CLASSIFICATION_TYPE = U
NORAD_CAT_ID   = 66024
ELEMENT_SET_NO = 999
REV_AT_EPOCH   = 478
BSTAR          = .10276E-2
MEAN_MOTION_DOT = .40846E-3
MEAN_MOTION_DDOT = 0

CCSDS_OMM_VERS = 2.0
CREATION_DATE  = 
ORIGINATOR     = 

OBJECT_NAME    = STARLINK-35280
OBJECT_ID      = 2025-232W
CENTER_NAME    = EARTH
REF_FRAME      = TEME
TIME_SYSTEM    = UTC
MEAN_ELEMENT_THEORY = SGP/SGP4

EPOCH          = 2025-11-13T04:00:03.998880
MEAN_MOTION    = 15.39548119
ECCENTRICITY   = .0001068
INCLINATION    = 53.1593
RA_OF_ASC_NODE = 286.7118
ARG_OF_PERICENTER = 96.2925
MEAN_ANOMALY   = 251.3452

EPHEMERIS_TYPE = 0
CLASSIFICATION_TYPE = U
NORAD_CAT_ID   = 66025
ELEMENT_SET_NO = 999
REV_AT_EPOCH   = 472
BSTAR          = .14988E-2
MEAN_MOTION_DOT = .5988E-3
MEAN_MOTION_DDOT = 0

CCSDS_OMM_VERS = 2.0
CREATION_DATE  = 
ORIGINATOR     = 

OBJECT_NAME    = STARLINK-34812
OBJECT_ID      = 2025-232X
CENTER_NAME    = EARTH
REF_FRAME      = TEME
TIME_SYSTEM    = UTC
MEAN_ELEMENT_THEORY = SGP/SGP4

EPOCH          = 2025-11-13T04:00:03.998880
MEAN_MOTION    = 15.39557824
ECCENTRICITY   = .0001555
INCLINATION    = 53.1584
RA_OF_ASC_NODE = 286.6102
ARG_OF_PERICENTER = 68.0345
MEAN_ANOMALY   = 331.0789

EPHEMERIS_TYPE = 0
CLASSIFICATION_TYPE = U
NORAD_CAT_ID   = 66026
ELEMENT_SET_NO = 999
REV_AT_EPOCH   = 473
BSTAR          = .15042E-2
MEAN_MOTION_DOT = .6012E-3
MEAN_MOTION_DDOT = 0

CCSDS_OMM_VERS = 2.0
CREATION_DATE  = 
ORIGINATOR     = 

OBJECT_NAME    = STARLINK-35341
OBJECT_ID      = 2025-232Y
CENTER_NAME    = EARTH
REF_FRAME      = TEME
TIME_SYSTEM    = UTC
MEAN_ELEMENT_THEORY = SGP/SGP4

EPOCH          = 2025-11-13T03:29:52.988352
MEAN_MOTION    = 15.39602128
ECCENTRICITY   = .0002012
INCLINATION    = 53.1594
RA_OF_ASC_NODE = 286.5505
ARG_OF_PERICENTER = 124.4226
MEAN_ANOMALY   = 235.6969

EPHEMERIS_TYPE = 0
CLASSIFICATION_TYPE = U
NORAD_CAT_ID   = 66027
ELEMENT_SET_NO = 999
REV_AT_EPOCH   = 557
BSTAR          = .20262E-2
MEAN_MOTION_DOT = .81472E-3
MEAN_MOTION_DDOT = 0

CCSDS_OMM_VERS = 2.0
CREATION_DATE  = 
ORIGINATOR     = 

OBJECT_NAME    = STARLINK-35339
OBJECT_ID      = 2025-232Z
CENTER_NAME    = EARTH
REF_FRAME      = TEME
TIME_SYSTEM    = UTC
MEAN_ELEMENT_THEORY = SGP/SGP4

EPOCH          = 2025-11-13T04:00:03.998880
MEAN_MOTION    = 15.39550636
ECCENTRICITY   = .000122
INCLINATION    = 53.1586
RA_OF_ASC_NODE = 286.4010
ARG_OF_PERICENTER = 89.1342
MEAN_ANOMALY   = 53.0387

EPHEMERIS_TYPE = 0
CLASSIFICATION_TYPE = U
NORAD_CAT_ID   = 66028
ELEMENT_SET_NO = 999
REV_AT_EPOCH   = 472
BSTAR          = .11455E-2
MEAN_MOTION_DOT = .4559E-3
MEAN_MOTION_DDOT = 0

CCSDS_OMM_VERS = 2.0
CREATION_DATE  = 
ORIGINATOR     = 

OBJECT_NAME    = STARLINK-35399
OBJECT_ID      = 2025-232AA
CENTER_NAME    = EARTH
REF_FRAME      = TEME
TIME_SYSTEM    = UTC
MEAN_ELEMENT_THEORY = SGP/SGP4

EPOCH          = 2025-11-13T04:00:03.998880
MEAN_MOTION    = 15.39556304
ECCENTRICITY   = .0001228
INCLINATION    = 53.1587
RA_OF_ASC_NODE = 286.3496
ARG_OF_PERICENTER = 83.8361
MEAN_ANOMALY   = 84.0867

EPHEMERIS_TYPE = 0
CLASSIFICATION_TYPE = U
NORAD_CAT_ID   = 66029
ELEMENT_SET_NO = 999
REV_AT_EPOCH   = 472
BSTAR          = .10496E-2
MEAN_MOTION_DOT = .41726E-3
MEAN_MOTION_DDOT = 0

CCSDS_OMM_VERS = 2.0
CREATION_DATE  = 
ORIGINATOR     = 

OBJECT_NAME    = STARLINK-35431
OBJECT_ID      = 2025-232AB
CENTER_NAME    = EARTH
REF_FRAME      = TEME
TIME_SYSTEM    = UTC
MEAN_ELEMENT_THEORY = SGP/SGP4

EPOCH          = 2025-11-13T04:00:03.998880
MEAN_MOTION    = 15.39525608
ECCENTRICITY   = .0001234
INCLINATION    = 53.1594
RA_OF_ASC_NODE = 286.2971
ARG_OF_PERICENTER = 70.2125
MEAN_ANOMALY   = 123.5175

EPHEMERIS_TYPE = 0
CLASSIFICATION_TYPE = U
NORAD_CAT_ID   = 66030
ELEMENT_SET_NO = 999
REV_AT_EPOCH   = 472
BSTAR          = .13264E-2
MEAN_MOTION_DOT = .52859E-3
MEAN_MOTION_DDOT = 0

